{"fetched_at":"2026-03-30T06:02:59Z","count":15439,"tles":[{"name":"STARLINK-34670","line1":"1 65424U 25192W   26087.87213574  .00024261  00000+0  82822-3 0  9999","line2":"2 65424  53.1615 143.0725 0001410  89.8064 270.3098 15.30213492 32326","category":"Starlink"}]}