{
  "norad_id": 65424,
  "name": "STARLINK-34670",
  "history": [
    {
      "epoch": "2026-03-28T20:55:52.527936Z",
      "apogee_km": 476.14144466254766,
      "perigee_km": 474.2081254079885,
      "latitude_deg": -3.0236648612905118e-05,
      "longitude_deg": 2.817258947238317,
      "height_km": 476.06957091357526,
      "semi_major_axis_km": 6853.311785035267,
      "eccentricity": 0.00014105,
      "inclination_deg": 53.1615,
      "raan_deg": 143.0725,
      "arg_perigee_deg": 89.8064,
      "mean_anomaly_deg": 270.3098,
      "mean_motion_rev_day": 15.30213492
    }
  ]
}